start=new Date('2023-05-24T00:00:00.000Z').valueOf();
sats=[{"ECCENTRICITY":"0.00012250","PERIAPSIS":"546.445","OBJECT_NAME":"STARLINK-1834","SEMIMAJOR_AXIS":"6925.429","EPHEMERIS_TYPE":"0","PERIOD":"95.594","NORAD_CAT_ID":"46781","CLASSIFICATION_TYPE":"U","OBJECT_TYPE":"PAYLOAD","COUNTRY_CODE":"US","RCS_SIZE":"LARGE","FILE":"3915766","MEAN_MOTION":"15.06373855","MEAN_MOTION_DOT":"0.00004568","REF_FRAME":"TEME","DECAY_DATE":null,"MEAN_ELEMENT_THEORY":"SGP4","MEAN_ANOMALY":"285.8394","ARG_OF_PERICENTER":"74.2730","MEAN_MOTION_DDOT":"0.0000000000000","GP_ID":"232400934","BSTAR":"0.00032557000000","REV_AT_EPOCH":"14276","INCLINATION":"53.0528","OBJECT_ID":"2020-074AU","TIME_SYSTEM":"UTC","ELEMENT_SET_NO":"999","EPOCH":"2023-05-23T12:07:03.016992","TLE_LINE1":"1 46781U 20074AU  23143.50489603  .00004568  00000-0  32557-3 0  9995","LAUNCH_DATE":"2020-10-24","APOAPSIS":"548.142","SITE":"AFETR","CENTER_NAME":"EARTH","TLE_LINE2":"2 46781  53.0528 225.8934 0001225  74.2730 285.8394 15.06373855142769","RA_OF_ASC_NODE":"225.8934"},{"TLE_LINE2":"2 46782  53.0530 216.0246 0001067 108.9931 251.1174 15.06402055142614","CENTER_NAME":"EARTH","SITE":"AFETR","APOAPSIS":"547.946","RA_OF_ASC_NODE":"216.0246","TLE_LINE1":"1 46782U 20074AV  23143.47630845  .00020071  00000-0  13624-2 0  9998","LAUNCH_DATE":"2020-10-24","REV_AT_EPOCH":"14261","INCLINATION":"53.0530","OBJECT_ID":"2020-074AV","EPOCH":"2023-05-23T11:25:53.050080","ELEMENT_SET_NO":"999","TIME_SYSTEM":"UTC","MEAN_MOTION_DDOT":"0.0000000000000","BSTAR":"0.00136240000000","GP_ID":"232372589","MEAN_ANOMALY":"251.1174","ARG_OF_PERICENTER":"108.9931","FILE":"3915364","DECAY_DATE":null,"MEAN_ELEMENT_THEORY":"SGP4","MEAN_MOTION_DOT":"0.00020071","MEAN_MOTION":"15.06402055","REF_FRAME":"TEME","PERIOD":"95.592","NORAD_CAT_ID":"46782","EPHEMERIS_TYPE":"0","COUNTRY_CODE":"US","OBJECT_TYPE":"PAYLOAD","RCS_SIZE":"LARGE","CLASSIFICATION_TYPE":"U","OBJECT_NAME":"STARLINK-1835","PERIAPSIS":"546.468","ECCENTRICITY":"0.00010670","SEMIMAJOR_AXIS":"6925.342"},{"RA_OF_ASC_NODE":"214.1716","CENTER_NAME":"EARTH","TLE_LINE2":"2 46783  53.0535 214.1716 0001124  44.5498 315.5581 15.06407085142950","APOAPSIS":"547.970","SITE":"AFETR","LAUNCH_DATE":"2020-10-24","TLE_LINE1":"1 46783U 20074AW  23143.88913473  .00017265  00000-0  11749-2 0  9992","ELEMENT_SET_NO":"999","EPOCH":"2023-05-23T21:20:21.240672","TIME_SYSTEM":"UTC","INCLINATION":"53.0535","REV_AT_EPOCH":"14295","OBJECT_ID":"2020-074AW","GP_ID":"232401936","BSTAR":"0.00117490000000","MEAN_MOTION_DDOT":"0.0000000000000","ARG_OF_PERICENTER":"44.5498","MEAN_ANOMALY":"315.5581","DECAY_DATE":null,"MEAN_ELEMENT_THEORY":"SGP4","MEAN_MOTION":"15.06407085","MEAN_MOTION_DOT":"0.00017265","REF_FRAME":"TEME","FILE":"3915766","CLASSIFICATION_TYPE":"U","COUNTRY_CODE":"US","OBJECT_TYPE":"PAYLOAD","RCS_SIZE":"LARGE","NORAD_CAT_ID":"46783","PERIOD":"95.592","EPHEMERIS_TYPE":"0","SEMIMAJOR_AXIS":"6925.327","PERIAPSIS":"546.413","OBJECT_NAME":"STARLINK-1851","ECCENTRICITY":"0.00011240"},{"OBJECT_NAME":"STARLINK-1882","PERIAPSIS":"546.740","ECCENTRICITY":"0.00007400","SEMIMAJOR_AXIS":"6925.388","NORAD_CAT_ID":"46784","PERIOD":"95.593","EPHEMERIS_TYPE":"0","RCS_SIZE":"LARGE","COUNTRY_CODE":"US","OBJECT_TYPE":"PAYLOAD","CLASSIFICATION_TYPE":"U","FILE":"3915766","MEAN_ELEMENT_THEORY":"SGP4","DECAY_DATE":null,"MEAN_MOTION":"15.06387273","MEAN_MOTION_DOT":"0.00006013","REF_FRAME":"TEME","MEAN_ANOMALY":"258.4569","ARG_OF_PERICENTER":"101.6503","MEAN_MOTION_DDOT":"0.0000000000000","BSTAR":"0.00042237000000","GP_ID":"232402185","INCLINATION":"53.0528","REV_AT_EPOCH":"14295","OBJECT_ID":"2020-074AX","EPOCH":"2023-05-23T21:24:18.226368","ELEMENT_SET_NO":"999","TIME_SYSTEM":"UTC","TLE_LINE1":"1 46784U 20074AX  23143.89187762  .00006013  00000-0  42237-3 0  9994","LAUNCH_DATE":"2020-10-24","TLE_LINE2":"2 46784  53.0528 214.1524 0000740 101.6503 258.4569 15.06387273142952","CENTER_NAME":"EARTH","APOAPSIS":"547.765","SITE":"AFETR","RA_OF_ASC_NODE":"214.1524"},{"MEAN_MOTION_DDOT":"0.0000000000000","BSTAR":"0.00151680000000","GP_ID":"232375348","OBJECT_ID":"2020-074AY","INCLINATION":"53.0534","REV_AT_EPOCH":"14257","EPOCH":"2023-05-23T11:31:11.735616","ELEMENT_SET_NO":"999","TIME_SYSTEM":"UTC","TLE_LINE1":"1 46785U 20074AY  23143.47999694  .00022382  00000-0  15168-2 0  9993","LAUNCH_DATE":"2020-10-24","TLE_LINE2":"2 46785  53.0534 216.0067 0001225  87.6987 272.4142 15.06397931142574","CENTER_NAME":"EARTH","SITE":"AFETR","APOAPSIS":"548.068","RA_OF_ASC_NODE":"216.0067","OBJECT_NAME":"STARLINK-1883","PERIAPSIS":"546.372","ECCENTRICITY":"0.00012250","SEMIMAJOR_AXIS":"6925.355","NORAD_CAT_ID":"46785","PERIOD":"95.592","EPHEMERIS_TYPE":"0","COUNTRY_CODE":"US","RCS_SIZE":"LARGE","OBJECT_TYPE":"PAYLOAD","CLASSIFICATION_TYPE":"U","FILE":"3915478","DECAY_DATE":null,"MEAN_ELEMENT_THEORY":"SGP4","REF_FRAME":"TEME","MEAN_MOTION_DOT":"0.00022382","MEAN_MOTION":"15.06397931","MEAN_ANOMALY":"272.4142","ARG_OF_PERICENTER":"87.6987"},{"MEAN_MOTION":"15.06394145","MEAN_MOTION_DOT":"0.00005760","REF_FRAME":"TEME","DECAY_DATE":null,"MEAN_ELEMENT_THEORY":"SGP4","FILE":"3915766","ARG_OF_PERICENTER":"83.0939","MEAN_ANOMALY":"277.0124","SEMIMAJOR_AXIS":"6925.367","ECCENTRICITY":"0.00006530","PERIAPSIS":"546.779","OBJECT_NAME":"STARLINK-1893","CLASSIFICATION_TYPE":"U","COUNTRY_CODE":"US","OBJECT_TYPE":"PAYLOAD","RCS_SIZE":"LARGE","EPHEMERIS_TYPE":"0","PERIOD":"95.593","NORAD_CAT_ID":"46786","LAUNCH_DATE":"2020-10-24","TLE_LINE1":"1 46786U 20074AZ  23143.85780589  .00005760  00000-0  40533-3 0  9993","RA_OF_ASC_NODE":"194.3105","SITE":"AFETR","APOAPSIS":"547.684","CENTER_NAME":"EARTH","TLE_LINE2":"2 46786  53.0517 194.3105 0000653  83.0939 277.0124 15.06394145143237","GP_ID":"232400684","BSTAR":"0.00040533000000","MEAN_MOTION_DDOT":"0.0000000000000","TIME_SYSTEM":"UTC","ELEMENT_SET_NO":"999","EPOCH":"2023-05-23T20:35:14.428896","REV_AT_EPOCH":"14323","INCLINATION":"53.0517","OBJECT_ID":"2020-074AZ"},{"TLE_LINE1":"1 46787U 20074BA  23143.85043546  .00003687  00000-0  26636-3 0  9993","LAUNCH_DATE":"2020-10-24","APOAPSIS":"548.050","SITE":"AFETR","TLE_LINE2":"2 46787  53.0524 194.3414 0001151  88.9402 271.1719 15.06387039143231","CENTER_NAME":"EARTH","RA_OF_ASC_NODE":"194.3414","MEAN_MOTION_DDOT":"0.0000000000000","BSTAR":"0.00026636000000","GP_ID":"232401436","OBJECT_ID":"2020-074BA","REV_AT_EPOCH":"14323","INCLINATION":"53.0524","TIME_SYSTEM":"UTC","EPOCH":"2023-05-23T20:24:37.623744","ELEMENT_SET_NO":"999","FILE":"3915766","MEAN_MOTION":"15.06387039","MEAN_MOTION_DOT":"0.00003687","REF_FRAME":"TEME","DECAY_DATE":null,"MEAN_ELEMENT_THEORY":"SGP4","MEAN_ANOMALY":"271.1719","ARG_OF_PERICENTER":"88.9402","ECCENTRICITY":"0.00011510","OBJECT_NAME":"STARLINK-1899","PERIAPSIS":"546.456","SEMIMAJOR_AXIS":"6925.388","EPHEMERIS_TYPE":"0","NORAD_CAT_ID":"46787","PERIOD":"95.593","RCS_SIZE":"LARGE","COUNTRY_CODE":"US","OBJECT_TYPE":"PAYLOAD","CLASSIFICATION_TYPE":"U"},{"SEMIMAJOR_AXIS":"6925.363","PERIAPSIS":"546.283","OBJECT_NAME":"STARLINK-1929","ECCENTRICITY":"0.00013640","CLASSIFICATION_TYPE":"U","COUNTRY_CODE":"US","RCS_SIZE":"LARGE","OBJECT_TYPE":"PAYLOAD","NORAD_CAT_ID":"46788","PERIOD":"95.592","EPHEMERIS_TYPE":"0","DECAY_DATE":null,"MEAN_ELEMENT_THEORY":"SGP4","MEAN_MOTION":"15.06395390","MEAN_MOTION_DOT":"0.00004958","REF_FRAME":"TEME","FILE":"3915766","ARG_OF_PERICENTER":"86.8944","MEAN_ANOMALY":"273.2201","GP_ID":"232401685","BSTAR":"0.00035154000000","MEAN_MOTION_DDOT":"0.0000000000000","ELEMENT_SET_NO":"999","EPOCH":"2023-05-23T20:14:01.087296","TIME_SYSTEM":"UTC","REV_AT_EPOCH":"14323","OBJECT_ID":"2020-074BB","INCLINATION":"53.0515","LAUNCH_DATE":"2020-10-24","TLE_LINE1":"1 46788U 20074BB  23143.84306814  .00004958  00000-0  35154-3 0  9990","RA_OF_ASC_NODE":"194.3788","CENTER_NAME":"EARTH","TLE_LINE2":"2 46788  53.0515 194.3788 0001364  86.8944 273.2201 15.06395390143238","SITE":"AFETR","APOAPSIS":"548.172"},{"OBJECT_NAME":"STARLINK-1930","PERIAPSIS":"546.267","ECCENTRICITY":"0.00012740","SEMIMAJOR_AXIS":"6925.284","NORAD_CAT_ID":"46789","PERIOD":"95.591","EPHEMERIS_TYPE":"0","RCS_SIZE":"LARGE","COUNTRY_CODE":"US","OBJECT_TYPE":"PAYLOAD","CLASSIFICATION_TYPE":"U","FILE":"3915766","MEAN_ELEMENT_THEORY":"SGP4","DECAY_DATE":null,"REF_FRAME":"TEME","MEAN_MOTION_DOT":"0.00013842","MEAN_MOTION":"15.06420963","MEAN_ANOMALY":"291.0634","ARG_OF_PERICENTER":"69.0491","MEAN_MOTION_DDOT":"0.0000000000000","BSTAR":"0.00094578000000","GP_ID":"232400935","INCLINATION":"53.0523","OBJECT_ID":"2020-074BC","REV_AT_EPOCH":"14282","EPOCH":"2023-05-23T22:22:45.447744","ELEMENT_SET_NO":"999","TIME_SYSTEM":"UTC","TLE_LINE1":"1 46789U 20074BC  23143.93247046  .00013842  00000-0  94578-3 0  9999","LAUNCH_DATE":"2020-10-24","TLE_LINE2":"2 46789  53.0523 224.1358 0001274  69.0491 291.0634 15.06420963142820","CENTER_NAME":"EARTH","SITE":"AFETR","APOAPSIS":"548.032","RA_OF_ASC_NODE":"224.1358"},{"FILE":"3915766","DECAY_DATE":null,"MEAN_ELEMENT_THEORY":"SGP4","MEAN_MOTION_DOT":"0.00022475","REF_FRAME":"TEME","MEAN_MOTION":"15.06405372","MEAN_ANOMALY":"254.0854","ARG_OF_PERICENTER":"106.0252","OBJECT_NAME":"STARLINK-1931","PERIAPSIS":"546.458","ECCENTRICITY":"0.00010670","SEMIMAJOR_AXIS":"6925.332","NORAD_CAT_ID":"46790","PERIOD":"95.592","EPHEMERIS_TYPE":"0","OBJECT_TYPE":"PAYLOAD","COUNTRY_CODE":"US","RCS_SIZE":"LARGE","CLASSIFICATION_TYPE":"U","TLE_LINE1":"1 46790U 20074BD  23143.49750087  .00022475  00000-0  15227-2 0  9991","LAUNCH_DATE":"2020-10-24","TLE_LINE2":"2 46790  53.0529 225.9299 0001067 106.0252 254.0854 15.06405372142750","CENTER_NAME":"EARTH","SITE":"AFETR","APOAPSIS":"547.936","RA_OF_ASC_NODE":"225.9299","MEAN_MOTION_DDOT":"0.0000000000000","BSTAR":"0.00152270000000","GP_ID":"232401185","INCLINATION":"53.0529","OBJECT_ID":"2020-074BD","REV_AT_EPOCH":"14275","EPOCH":"2023-05-23T11:56:24.075168","ELEMENT_SET_NO":"999","TIME_SYSTEM":"UTC"}];
